[{"OBJECT_NAME":"CUBEBEL 2 (EU11S)","OBJECT_ID":"2023-091K","EPOCH":"2026-03-09T21:40:29.186112","MEAN_MOTION":15.26706784,"ECCENTRICITY":0.00118653,"INCLINATION":97.517,"RA_OF_ASC_NODE":131.3579,"ARG_OF_PERICENTER":105.889,"MEAN_ANOMALY":254.3657,"EPHEMERIS_TYPE":0,"CLASSIFICATION_TYPE":"U","NORAD_CAT_ID":57175,"ELEMENT_SET_NO":999,"REV_AT_EPOCH":14914,"BSTAR":0.00056688644,"MEAN_MOTION_DOT":0.00014859,"MEAN_MOTION_DDOT":0},{"OBJECT_NAME":"STARLINK-30984","OBJECT_ID":"2023-186H","EPOCH":"2026-03-09T23:19:56.814240","MEAN_MOTION":15.27581934,"ECCENTRICITY":7.064e-5,"INCLINATION":43.0038,"RA_OF_ASC_NODE":61.6849,"ARG_OF_PERICENTER":162.5353,"MEAN_ANOMALY":197.5523,"EPHEMERIS_TYPE":0,"CLASSIFICATION_TYPE":"U","NORAD_CAT_ID":58480,"ELEMENT_SET_NO":999,"REV_AT_EPOCH":12594,"BSTAR":-3.3949124e-5,"MEAN_MOTION_DOT":-1.196e-5,"MEAN_MOTION_DDOT":0}]
